NORAD_CAT_ID,OBJECT_NAME,OBJECT_TYPE,EPOCH,MEAN_MOTION,ECCENTRICITY,INCLINATION,RA_OF_ASC_NODE,ARG_OF_PERICENTER,MEAN_ANOMALY,BSTAR,MEAN_MOTION_DOT,MEAN_MOTION_DDOT,TLE_LINE0,TLE_LINE1,TLE_LINE2,SEMIMAJOR_AXIS,PERIOD,APOGEE,PERIGEE,DECAYED
50175.0,STARLINK-3291,PAYLOAD,2024-04-02 12:30:15,15.08864685,0.000156,53.2148,179.2344,93.3824,266.7347,0.00094007,0.00014715,0.0,0 STARLINK-3291,1 50175U 21125V   24093.52101781  .00014715  00000-0  94007-3 0  9993,2 50175  53.2148 179.2344 0001560  93.3824 266.7347 15.08864685129507,6917.805,95.436,540.749,538.591,0.0
50175.0,STARLINK-3291,PAYLOAD,2024-04-03 05:59:29,15.08865257,0.0001738,53.2166,175.963,90.8092,269.3099,0.00045419,6.953e-05,0.0,0 STARLINK-3291,1 50175U 21125V   24094.24964911  .00006953  00000-0  45419-3 0  9993,2 50175  53.2166 175.9630 0001738  90.8092 269.3099 15.08865257129615,6917.803,95.436,540.871,538.466,0.0
50175.0,STARLINK-3291,PAYLOAD,2024-04-03 12:21:02,15.08848621,0.0001302,53.2163,174.7751,94.7167,265.3974,-2.8569e-05,-7.43e-06,0.0,0 STARLINK-3291,1 50175U 21125V   24094.51460786 -.00000743  00000-0 -28569-4 0  9995,2 50175  53.2163 174.7751 0001302  94.7167 265.3974 15.08848621129654,6917.854,95.437,540.62,538.818,0.0
50175.0,STARLINK-3291,PAYLOAD,2024-04-03 21:53:20,15.08852698,0.0001278,53.2158,172.9902,94.7498,265.364,0.00059568,9.208e-05,0.0,0 STARLINK-3291,1 50175U 21125V   24094.91204632  .00009208  00000-0  59568-3 0  9990,2 50175  53.2158 172.9902 0001278  94.7498 265.3640 15.08852698130207,6917.842,95.437,540.591,538.822,0.0
50175.0,STARLINK-3291,PAYLOAD,2024-04-04 12:11:49,15.08837297,0.0001423,53.2166,170.3138,99.0205,261.0948,6.5298e-05,7.51e-06,0.0,0 STARLINK-3291,1 50175U 21125V   24095.50821067  .00000751  00000-0  65298-4 0  9995,2 50175  53.2166 170.3138 0001423  99.0205 261.0948 15.08837297129801,6917.889,95.438,540.738,538.769,0.0
50175.0,STARLINK-3291,PAYLOAD,2024-04-04 21:44:08,15.08844119,0.0001419,53.217,168.5298,99.7529,260.3624,0.00033379,5.029e-05,0.0,0 STARLINK-3291,1 50175U 21125V   24095.90565084  .00005029  00000-0  33379-3 0  9990,2 50175  53.2170 168.5298 0001419  99.7529 260.3624 15.08844119130359,6917.868,95.437,540.714,538.751,0.0
50175.0,STARLINK-3291,PAYLOAD,2024-04-05 12:02:36,15.0885787,0.0001296,53.2158,165.8531,99.2817,260.8322,0.0008118,0.00012662,0.0,0 STARLINK-3291,1 50175U 21125V   24096.50180734  .00012662  00000-0  81180-3 0  9996,2 50175  53.2158 165.8531 0001296  99.2817 260.8322 15.08857870129955,6917.826,95.436,540.587,538.794,0.0
50175.0,STARLINK-3291,PAYLOAD,2024-04-06 08:42:37,15.08844975,0.0002223,53.2162,161.9875,52.6605,307.4589,0.00035616,5.385e-05,0.0,0 STARLINK-3291,1 50175U 21125V   24097.36293176  .00005385  00000-0  35616-3 0  9993,2 50175  53.2162 161.9875 0002223  52.6605 307.4589 15.08844975130088,6917.865,95.437,541.268,538.192,0.0
50175.0,STARLINK-3291,PAYLOAD,2024-04-06 13:28:46,15.0883708,0.0001216,53.2151,161.094,87.0626,273.0505,-7.2705e-05,-1.445e-05,0.0,0 STARLINK-3291,1 50175U 21125V   24097.56164930 -.00001445  00000-0 -72705-4 0  9996,2 50175  53.2151 161.0940 0001216  87.0626 273.0505 15.08837080130609,6917.889,95.438,540.596,538.913,0.0
50175.0,STARLINK-3291,PAYLOAD,2024-04-06 21:25:42,15.08837679,0.0001182,53.2146,159.6077,89.4112,270.7016,-4.8063e-06,-3.64e-06,0.0,0 STARLINK-3291,1 50175U 21125V   24097.89285097 -.00000364  00000-0 -48063-5 0  9990,2 50175  53.2146 159.6077 0001182  89.4112 270.7016 15.08837679130655,6917.887,95.438,540.57,538.935,0.0
50175.0,STARLINK-3291,PAYLOAD,2024-04-07 13:19:33,15.08844227,0.0001439,53.2164,156.6345,86.0144,274.1013,3.2243e-05,2.25e-06,0.0,0 STARLINK-3291,1 50175U 21125V   24098.55525219  .00000225  00000-0  32243-4 0  9993,2 50175  53.2164 156.6345 0001439  86.0144 274.1013 15.08844227130756,6917.867,95.437,540.728,538.737,0.0
50175.0,STARLINK-3291,PAYLOAD,2024-04-07 21:16:29,15.08846431,0.0001406,53.2175,155.1468,88.4618,271.6536,8.646e-05,1.089e-05,0.0,0 STARLINK-3291,1 50175U 21125V   24098.88644813  .00001089  00000-0  86460-4 0  9990,2 50175  53.2175 155.1468 0001406  88.4618 271.6536 15.08846431130317,6917.861,95.437,540.698,538.753,0.0
50175.0,STARLINK-3291,PAYLOAD,2024-04-08 09:59:34,15.08837414,0.000169,53.2182,152.7682,97.1804,262.9381,0.00014702,2.052e-05,0.0,0 STARLINK-3291,1 50175U 21125V   24099.41637388  .00002052  00000-0  14702-3 0  9999,2 50175  53.2182 152.7682 0001690  97.1804 262.9381 15.08837414130395,6917.888,95.438,540.922,538.584,0.0
50175.0,STARLINK-3291,PAYLOAD,2024-04-08 21:07:16,15.08842974,0.0001689,53.2179,150.6863,94.9712,265.1473,0.00013335,1.835e-05,0.0,0 STARLINK-3291,1 50175U 21125V   24099.88005123  .00001835  00000-0  13335-3 0  9995,2 50175  53.2179 150.6863 0001689  94.9712 265.1473 15.08842974130956,6917.871,95.437,540.905,538.568,0.0
50175.0,STARLINK-3291,PAYLOAD,2024-04-09 09:50:22,15.08828919,0.0001649,53.2178,148.3085,94.2685,265.8495,0.00027661,4.116e-05,0.0,0 STARLINK-3291,1 50175U 21125V   24100.40997875  .00004116  00000-0  27661-3 0  9992,2 50175  53.2178 148.3085 0001649  94.2685 265.8495 15.08828919130542,6917.914,95.438,540.92,538.638,0.0
50175.0,STARLINK-3291,PAYLOAD,2024-04-10 03:19:36,15.08839752,0.0001596,53.218,145.0379,93.6612,266.4562,7.2661e-05,8.69e-06,0.0,0 STARLINK-3291,1 50175U 21125V   24101.13861393  .00000869  00000-0  72661-4 0  9990,2 50175  53.2180 145.0379 0001596  93.6612 266.4562 15.08839752130650,6917.881,95.438,540.85,538.642,0.0
50175.0,STARLINK-3291,PAYLOAD,2024-04-10 09:41:09,15.08836941,0.0001693,53.2181,143.8476,92.077,268.0416,4.9725e-06,-2.09e-06,0.0,0 STARLINK-3291,1 50175U 21125V   24101.40357739 -.00000209  00000-0  49725-5 0  9999,2 50175  53.2181 143.8476 0001693  92.0770 268.0416 15.08836941131183,6917.89,95.438,540.926,538.584,0.0
50175.0,STARLINK-3291,PAYLOAD,2024-04-10 19:13:27,15.08831384,0.0001509,53.218,142.0637,95.5598,264.5567,0.00012199,1.654e-05,0.0,0 STARLINK-3291,1 50175U 21125V   24101.80101845  .00001654  00000-0  12199-3 0  9995,2 50175  53.2180 142.0637 0001509  95.5598 264.5567 15.08831384130750,6917.907,95.438,540.816,538.728,0.0
50175.0,STARLINK-3291,PAYLOAD,2024-04-11 09:31:55,15.08839547,0.000148,53.2174,139.3872,92.6353,267.4809,6.5659e-05,7.57e-06,0.0,0 STARLINK-3291,1 50175U 21125V   24102.39717422  .00000757  00000-0  65659-4 0  9997,2 50175  53.2174 139.3872 0001480  92.6353 267.4809 15.08839547130848,6917.882,95.438,540.771,538.723,0.0
50175.0,STARLINK-3291,PAYLOAD,2024-04-11 19:04:14,15.08844951,0.0001473,53.2175,137.603,92.1706,267.9455,9.5273e-05,1.229e-05,0.0,0 STARLINK-3291,1 50175U 21125V   24102.79460970  .00001229  00000-0  95273-4 0  9994,2 50175  53.2175 137.6030 0001473  92.1706 267.9455 15.08844951131393,6917.865,95.437,540.749,538.711,0.0
50175.0,STARLINK-3291,PAYLOAD,2024-04-12 09:22:43,15.08827059,0.0001611,53.2178,134.9298,102.9028,257.2144,1.8363e-05,4e-08,0.0,0 STARLINK-3291,1 50175U 21125V   24103.39078530  .00000004  00000-0  18363-4 0  9993,2 50175  53.2178 134.9298 0001611 102.9028 257.2144 15.08827059130995,6917.92,95.438,540.899,538.67,0.0
50175.0,STARLINK-3291,PAYLOAD,2024-04-13 10:48:53,15.08844261,0.0001529,53.2174,130.1711,97.0405,263.0761,4.1052e-05,3.65e-06,0.0,0 STARLINK-3291,1 50175U 21125V   24104.45061683  .00000365  00000-0  41052-4 0  9993,2 50175  53.2174 130.1711 0001529  97.0405 263.0761 15.08844261131153,6917.867,95.437,540.79,538.675,0.0
50175.0,STARLINK-3291,PAYLOAD,2024-04-14 09:04:17,15.08842196,0.0001518,53.2165,126.0034,88.9726,271.144,0.00012234,1.66e-05,0.0,0 STARLINK-3291,1 50175U 21125V   24105.37797676  .00001660  00000-0  12234-3 0  9991,2 50175  53.2165 126.0034 0001518  88.9726 271.1440 15.08842196131786,6917.874,95.437,540.789,538.689,0.0
50175.0,STARLINK-3291,PAYLOAD,2024-04-15 00:58:08,15.08845952,0.0001532,53.2166,123.0307,89.5986,270.5182,7.1101e-05,8.44e-06,0.0,0 STARLINK-3291,1 50175U 21125V   24106.04037603  .00000844  00000-0  71101-4 0  9995,2 50175  53.2166 123.0307 0001532  89.5986 270.5182 15.08845952131394,6917.862,95.437,540.787,538.667,0.0
50175.0,STARLINK-3291,PAYLOAD,2024-04-15 07:19:41,15.08844198,0.0001515,53.2166,121.8406,91.4922,268.6243,4.9127e-05,4.94e-06,0.0,0 STARLINK-3291,1 50175U 21125V   24106.30533703  .00000494  00000-0  49127-4 0  9990,2 50175  53.2166 121.8406 0001515  91.4922 268.6243 15.08844198131929,6917.868,95.437,540.781,538.685,0.0
50175.0,STARLINK-3291,PAYLOAD,2024-04-15 18:27:22,15.0884906,0.0001496,53.2167,119.7586,94.6069,265.5094,8.9962e-05,1.144e-05,0.0,0 STARLINK-3291,1 50175U 21125V   24106.76901124  .00001144  00000-0  89962-4 0  9990,2 50175  53.2167 119.7586 0001496  94.6069 265.5094 15.08849060131990,6917.853,95.437,540.753,538.683,0.0
50175.0,STARLINK-3291,PAYLOAD,2024-04-16 05:35:04,15.08844043,0.0001571,53.2172,117.6773,100.1054,260.0115,6.414e-05,7.33e-06,0.0,0 STARLINK-3291,1 50175U 21125V   24107.23269436  .00000733  00000-0  64140-4 0  9990,2 50175  53.2172 117.6773 0001571 100.1054 260.0115 15.08844043131576,6917.868,95.437,540.82,538.646,0.0
50175.0,STARLINK-3291,PAYLOAD,2024-04-16 07:10:27,15.08844869,0.000159,53.2171,117.3798,100.5973,259.5198,6.9807e-05,8.23e-06,0.0,0 STARLINK-3291,1 50175U 21125V   24107.29893346  .00000823  00000-0  69807-4 0  9994,2 50175  53.2171 117.3798 0001590 100.5973 259.5198 15.08844869132070,6917.866,95.437,540.83,538.631,0.0
50175.0,STARLINK-3291,PAYLOAD,2024-04-17 05:25:52,15.08836274,0.0001609,53.2169,113.2154,104.772,255.3451,-2.5244e-06,-3.28e-06,0.0,0 STARLINK-3291,1 50175U 21125V   24108.22630071 -.00000328  00000-0 -25244-5 0  9992,2 50175  53.2169 113.2154 0001609 104.7720 255.3451 15.08836274131723,6917.892,95.438,540.87,538.644,0.0
50175.0,STARLINK-3291,PAYLOAD,2024-04-17 10:12:01,15.08834399,0.0001578,53.2171,112.3237,103.3428,256.774,-2.5011e-05,-6.86e-06,0.0,0 STARLINK-3291,1 50175U 21125V   24108.42502256 -.00000686  00000-0 -25011-4 0  9995,2 50175  53.2171 112.3237 0001578 103.3428 256.7740 15.08834399132243,6917.898,95.438,540.854,538.671,0.0
